OBJECT_NAME,OBJECT_ID,EPOCH,MEAN_MOTION,ECCENTRICITY,INCLINATION,RA_OF_ASC_NODE,ARG_OF_PERICENTER,MEAN_ANOMALY,EPHEMERIS_TYPE,CLASSIFICATION_TYPE,NORAD_CAT_ID,ELEMENT_SET_NO,REV_AT_EPOCH,BSTAR,MEAN_MOTION_DOT,MEAN_MOTION_DDOT
FENGYUN 1C DEB,1999-025CHB,2025-04-01T08:36:01.073664,14.48613113,.0139128,99.4501,140.7260,8.4324,351.9157,0,U,31813,999,93557,.73031E-3,.3045E-4,0
FENGYUN 1C DEB,1999-025CHC,2025-04-01T08:59:48.701472,13.66161892,.0231697,99.5957,143.7112,150.5650,210.8775,0,U,31814,999,58312,.89046E-3,.84E-5,0
FENGYUN 1C DEB,1999-025CHD,2025-04-01T06:21:49.595040,14.10215275,.0059415,98.7493,84.2449,25.5462,334.8624,0,U,31815,999,91938,.15899E-3,.243E-5,0
FENGYUN 1C DEB,1999-025CHE,2025-04-01T14:50:09.221856,13.93275143,.0124076,98.9657,213.2300,133.1621,241.9427,0,U,31816,999,90140,.26218E-2,.3607E-4,0
FENGYUN 1C DEB,1999-025CHF,2025-04-01T17:52:03.450432,14.61088352,.0068289,98.9022,67.6295,137.1701,223.4845,0,U,31817,999,67676,.24494E-2,.12405E-3,0
FENGYUN 1C DEB,1999-025CHH,2025-04-01T17:29:12.422400,14.29571143,.0088128,98.4615,89.9883,352.8911,7.1016,0,U,31819,999,93049,.78904E-3,.2062E-4,0
FENGYUN 1C DEB,1999-025CHJ,2025-03-30T02:47:41.281728,14.83471200,.0172929,98.9353,227.1365,114.0176,247.9243,0,U,31820,999,94423,.26817E-2,.2876E-3,0
FENGYUN 1C DEB,1999-025CHK,2025-04-01T03:43:15.507840,14.29851485,.0260897,98.1635,349.3972,62.2844,300.4545,0,U,31821,999,89993,.92252E-2,.3446E-3,0
FENGYUN 1C DEB,1999-025CHM,2025-04-02T09:01:58.198656,14.59843611,.0039201,99.5251,139.9790,262.0047,97.6699,0,U,31823,999,92999,.36071E-2,.17419E-3,0
FENGYUN 1C DEB,1999-025CHP,2025-04-02T06:17:51.774720,14.20843987,.0167439,98.5876,98.6827,356.1168,3.8698,0,U,31825,999,92007,.14806E-2,.3644E-4,0
FENGYUN 1C DEB,1999-025CHQ,2025-04-01T23:10:41.411712,14.18691203,.0124577,98.6118,90.0443,203.9468,214.6782,0,U,31826,999,92201,.54297E-3,.1174E-4,0
FENGYUN 1C DEB,1999-025CHT,2025-04-02T11:08:11.646816,13.88355086,.0170316,98.8272,275.5939,137.4924,253.6037,0,U,31829,999,90619,.92242E-3,.1201E-4,0
FENGYUN 1C DEB,1999-025CHU,2025-04-02T06:32:47.442048,13.82068604,.0186095,99.1539,204.7576,274.1877,113.0895,0,U,31830,999,89223,.28858E-2,.3499E-4,0
FENGYUN 1C DEB,1999-025CHY,2025-04-01T11:27:36.644544,14.02779065,.0163827,98.4044,331.5496,79.4989,282.4591,0,U,31834,999,60131,.49497E-3,.824E-5,0
FENGYUN 1C DEB,1999-025CJB,2025-03-29T11:14:24.863712,14.76535894,.0105048,98.1195,161.7376,129.7877,231.2641,0,U,31837,999,94610,.24541E-2,.18723E-3,0
FENGYUN 1C DEB,1999-025CJC,2025-03-27T09:16:01.801344,14.20158762,.0039205,98.7407,140.2935,126.6850,248.4429,0,U,31838,999,92286,.21167E-2,.4509E-4,0
FENGYUN 1C DEB,1999-025CJF,2025-03-29T18:49:57.507168,14.01105615,.0318388,98.4168,276.6628,314.2976,54.6490,0,U,31841,999,55724,.21266E-2,.4925E-4,0
FENGYUN 1C DEB,1999-025CJH,2025-03-23T04:10:18.202656,13.30997736,.0644917,99.2484,46.7419,285.2561,67.8185,0,U,31843,999,61173,.11189E-1,.17135E-3,0
FENGYUN 1C DEB,1999-025CJJ,2025-04-01T14:03:01.843200,14.18587827,.01041,100.2777,39.4741,328.6391,30.8598,0,U,31844,999,91711,.17665E-2,.3805E-4,0
FENGYUN 1C DEB,1999-025CJQ,2025-03-27T06:24:44.644032,15.02067942,.0136373,98.6011,97.4983,243.9464,114.7666,0,U,31850,999,93704,.46991E-2,.76055E-3,0
FENGYUN 1C DEB,1999-025CJU,2025-04-02T11:33:42.836256,14.02685981,.0073675,98.8495,102.7798,129.6198,231.1502,0,U,31854,999,65707,.47242E-3,.705E-5,0
FENGYUN 1C DEB,1999-025CJX,2025-04-02T01:10:20.947584,13.60750233,.0311214,96.1921,214.1122,270.1320,86.4175,0,U,31857,999,58164,.30285E-2,.313E-4,0
FENGYUN 1C DEB,1999-025CKB,2025-03-31T03:01:40.537632,13.28885927,.0495083,102.3334,231.9813,40.5224,323.1674,0,U,31861,999,86390,.28367E-2,.25E-4,0
FENGYUN 1C DEB,1999-025CKC,2025-04-02T00:32:51.143424,14.95087197,.0122114,99.0437,122.4995,24.6551,336.0435,0,U,31877,999,95228,.14145E-2,.17951E-3,0
FENGYUN 1C DEB,1999-025CKD,2025-03-28T08:47:00.694464,14.79565808,.0095613,99.4596,324.5095,327.0803,32.4471,0,U,31878,999,94251,.20599E-2,.16627E-3,0
FENGYUN 1C DEB,1999-025CKE,2025-04-01T12:00:54.559008,14.42099544,.0212127,99.7403,294.2530,56.2244,305.8949,0,U,31879,999,59530,.48407E-3,.202E-4,0
FENGYUN 1C DEB,1999-025CKF,2025-04-02T02:33:06.297696,13.88940553,.0130189,100.0037,235.8188,100.0959,261.4912,0,U,31880,999,59444,.15883E-2,.2008E-4,0
FENGYUN 1C DEB,1999-025CKH,2025-03-30T12:36:29.083104,14.12213487,.0035307,98.9112,13.4336,232.1307,127.6669,0,U,31882,999,55005,.10749E-2,.1943E-4,0
FENGYUN 1C DEB,1999-025CKJ,2025-04-02T09:42:28.744704,14.65228115,.0129864,99.0432,343.5773,131.2388,230.0089,0,U,31883,999,94251,.95916E-3,.579E-4,0
FENGYUN 1C DEB,1999-025CKN,2025-04-02T11:32:05.079840,14.53326177,.0026381,99.5482,108.0561,43.6297,316.6975,0,U,31887,999,92909,.4309E-2,.17977E-3,0
FENGYUN 1C DEB,1999-025CKP,2025-04-01T11:26:18.939840,14.30819240,.0017887,99.1525,3.9598,235.8082,124.1404,0,U,31888,999,91983,.28546E-2,.7456E-4,0
FENGYUN 1C DEB,1999-025CKR,2025-03-31T18:52:26.597280,14.09995714,.0071566,98.7303,109.9685,247.2549,112.1047,0,U,31890,999,60545,.18296E-3,.287E-5,0
FENGYUN 1C DEB,1999-025CKS,2025-03-31T11:22:57.438624,13.65855126,.0226614,99.4173,112.7312,124.0156,238.2739,0,U,31891,999,88911,.95987E-3,.898E-5,0
FENGYUN 1C DEB,1999-025CKT,2025-04-01T03:14:17.770560,14.39632045,.0202589,99.2641,239.2855,315.4469,43.0582,0,U,31892,999,61226,.70889E-3,.276E-4,0
FENGYUN 1C DEB,1999-025CKU,2025-04-01T01:23:26.547360,14.62433024,.0179637,99.0433,24.4780,28.9311,342.8291,0,U,31893,999,94666,.81714E-3,.5154E-4,0
FENGYUN 1C DEB,1999-025CKW,2025-03-31T19:55:30.664128,13.74102787,.0230945,99.1099,131.2822,185.1573,174.7194,0,U,31895,999,88784,.33036E-2,.3727E-4,0
FENGYUN 1C DEB,1999-025CKZ,2025-03-28T07:21:03.255552,14.64481958,.0153541,98.7383,295.7706,305.3755,53.3181,0,U,31898,999,61910,.17532E-2,.10989E-3,0
FENGYUN 1C DEB,1999-025CLA,2025-04-01T17:34:36.100992,13.82308436,.0186582,102.0861,83.0217,46.5878,315.0628,0,U,31899,999,89031,.59733E-2,.7312E-4,0
FENGYUN 1C DEB,1999-025CLC,2025-03-28T16:27:53.528544,13.93964432,.0131614,98.5685,67.1215,187.2090,172.7183,0,U,31901,999,59798,.18697E-3,.226E-5,0
FENGYUN 1C DEB,1999-025CLD,2025-03-31T17:32:30.221376,14.22749194,.0181622,98.4845,79.4636,175.3547,357.5378,0,U,31902,999,61150,.37324E-3,.947E-5,0
FENGYUN 1C DEB,1999-025CLE,2025-03-27T08:12:04.890528,14.58108634,.0135563,99.2479,44.7136,101.9895,259.6532,0,U,31903,999,93597,.22213E-2,.1157E-3,0
FENGYUN 1C DEB,1999-025CLG,2025-04-01T15:00:05.504544,14.31667232,.0200783,99.1238,54.0900,114.8431,247.3775,0,U,31905,999,92972,.98891E-3,.324E-4,0
FENGYUN 1C DEB,1999-025CLH,2025-04-01T08:11:43.851264,14.22032410,.005526,98.6799,227.7263,142.1800,283.6985,0,U,31906,999,91496,.4122E-2,.9224E-4,0
FENGYUN 1C DEB,1999-025CLM,2025-04-01T22:46:41.839104,14.45035029,.0234904,97.6903,136.7571,224.2166,134.0046,0,U,31910,999,60686,.1146E-2,.5578E-4,0
FENGYUN 1C DEB,1999-025CLQ,2025-04-01T01:26:54.396384,13.88038713,.0199007,99.2998,12.3708,276.9847,80.8714,0,U,31913,999,52336,.37748E-2,.5221E-4,0
FENGYUN 1C DEB,1999-025CLR,2025-04-01T07:00:16.968384,14.55160854,.0184585,99.0583,293.1634,121.2107,240.7325,0,U,31914,999,64757,.34109E-3,.1791E-4,0
FENGYUN 1C DEB,1999-025CLS,2025-04-01T20:37:51.274272,14.15225412,.0101337,98.6475,117.3767,280.6128,78.3646,0,U,31915,999,60501,.1299E-2,.261E-4,0
FENGYUN 1C DEB,1999-025CLT,2025-03-28T22:15:21.304224,14.29879108,.0154124,99.3410,153.8885,121.4288,240.2066,0,U,31916,999,92064,.30238E-2,.8812E-4,0
FENGYUN 1C DEB,1999-025CLU,2025-04-01T17:46:42.407040,14.36432375,.0192672,98.3501,91.7485,337.2433,198.1365,0,U,31917,999,92759,.12856E-2,.4613E-4,0
FENGYUN 1C DEB,1999-025CLW,2025-04-01T14:36:24.868224,14.44716646,.0103392,99.0673,216.2020,243.8764,126.5197,0,U,31919,999,93396,.83894E-3,.3053E-4,0
FENGYUN 1C DEB,1999-025CLX,2025-04-02T09:58:49.754496,15.75961063,.0037498,98.7665,74.4425,150.3101,210.0299,0,U,31920,999,96337,.28293E-2,.480857E-2,0
FENGYUN 1C DEB,1999-025CLY,2025-03-30T04:02:52.597248,13.74490855,.0204979,99.3550,346.7843,220.5929,137.9782,0,U,31921,999,88767,.18321E-2,.1975E-4,0
FENGYUN 1C DEB,1999-025CLZ,2025-04-02T00:23:10.710816,13.85505822,.0160983,98.7971,98.6358,359.8555,62.3942,0,U,31922,999,89488,.34348E-2,.4296E-4,0
FENGYUN 1C DEB,1999-025CMA,2025-03-30T19:16:07.314816,13.54151327,.0301623,98.4214,220.6817,253.1307,103.6559,0,U,31923,999,87764,.26033E-2,.2326E-4,0
FENGYUN 1C DEB,1999-025CMB,2025-04-02T12:18:35.568288,13.62919770,.0276225,98.3960,284.3413,49.9242,312.5775,0,U,31924,999,88003,.25399E-2,.2534E-4,0
FENGYUN 1C DEB,1999-025CMD,2025-04-01T18:14:54.208032,14.27294505,.0039198,98.9547,180.1017,271.0413,88.6276,0,U,31926,999,91586,.32895E-2,.8077E-4,0
FENGYUN 1C DEB,1999-025CME,2025-04-02T13:56:53.817216,14.34002003,.0075606,98.7601,217.9595,83.5999,277.3788,0,U,31929,999,67002,.11014E-2,.3131E-4,0
FENGYUN 1C DEB,1999-025CMG,2025-03-29T18:18:26.986176,13.42082760,.0424442,97.7890,96.9372,219.9836,136.9326,0,U,31931,999,61761,.11381E-2,.106E-4,0
FENGYUN 1C DEB,1999-025CMK,2025-04-01T18:47:11.676192,14.87548734,.0049936,98.9071,106.6990,337.8788,22.0269,0,U,31934,999,57031,.46128E-2,.43015E-3,0
FENGYUN 1C DEB,1999-025CMN,2025-04-01T08:42:05.890752,14.73980034,.017401,99.2754,143.7498,9.7747,350.6771,0,U,31937,999,62302,.11866E-2,.9882E-4,0
FENGYUN 1C DEB,1999-025CMP,2025-03-31T17:36:11.577312,14.91807934,.0162215,98.9418,87.0853,170.2663,190.1760,0,U,31938,999,95314,.65908E-3,.85E-4,0
FENGYUN 1C DEB,1999-025CMV,2025-03-31T04:24:34.949376,14.10948737,.0152643,99.1773,231.5233,2.7534,169.6218,0,U,31944,999,59291,.91069E-3,.1777E-4,0
FENGYUN 1C DEB,1999-025CMW,2025-04-02T11:02:15.956160,14.18901199,.0060799,98.9697,165.4878,294.0426,65.4394,0,U,31945,999,91587,.24231E-2,.5098E-4,0
FENGYUN 1C DEB,1999-025CMX,2025-04-02T10:27:43.974432,14.14862627,.0085078,98.9053,152.9464,54.2808,306.6243,0,U,31946,999,60410,.23276E-2,.4611E-4,0
